MACSAT (FINCH 1)        
1 58024U 23155J   26068.75584882  .00005699  00000+0  27017-3 0  9992
2 58024  97.5815 150.2689 0003733  71.2233 288.9406 15.19694714133226
NUSAT-52                
1 66692U 25276AC  26068.75420433  .00007671  00000+0  37393-3 0  9999
2 66692  97.4277 144.0115 0003268  28.4269 331.7143 15.18602485 15326
