[{"OBJECT_NAME":"MACSAT (FINCH 1)","OBJECT_ID":"2023-155J","EPOCH":"2026-03-09T18:08:25.338048","MEAN_MOTION":15.19694714,"ECCENTRICITY":0.00037335,"INCLINATION":97.5815,"RA_OF_ASC_NODE":150.2689,"ARG_OF_PERICENTER":71.2233,"MEAN_ANOMALY":288.9406,"EPHEMERIS_TYPE":0,"CLASSIFICATION_TYPE":"U","NORAD_CAT_ID":58024,"ELEMENT_SET_NO":999,"REV_AT_EPOCH":13322,"BSTAR":0.00027017053,"MEAN_MOTION_DOT":5.699e-5,"MEAN_MOTION_DDOT":0},{"OBJECT_NAME":"NUSAT-52","OBJECT_ID":"2025-276AC","EPOCH":"2026-03-09T18:06:03.254976","MEAN_MOTION":15.18602485,"ECCENTRICITY":0.0003268,"INCLINATION":97.4277,"RA_OF_ASC_NODE":144.0115,"ARG_OF_PERICENTER":28.4269,"MEAN_ANOMALY":331.7143,"EPHEMERIS_TYPE":0,"CLASSIFICATION_TYPE":"U","NORAD_CAT_ID":66692,"ELEMENT_SET_NO":999,"REV_AT_EPOCH":1532,"BSTAR":0.00037392998,"MEAN_MOTION_DOT":7.671e-5,"MEAN_MOTION_DDOT":0}]
